[{"OBJECT_NAME":"QIANFAN-22","OBJECT_ID":"2024-185D","EPOCH":"2026-03-09T23:31:55.028928","MEAN_MOTION":13.86341559,"ECCENTRICITY":0.00086446,"INCLINATION":88.9743,"RA_OF_ASC_NODE":69.6686,"ARG_OF_PERICENTER":90.0362,"MEAN_ANOMALY":270.1799,"EPHEMERIS_TYPE":0,"CLASSIFICATION_TYPE":"U","NORAD_CAT_ID":61555,"ELEMENT_SET_NO":999,"REV_AT_EPOCH":8102,"BSTAR":0.00027768679,"MEAN_MOTION_DOT":3.34e-6,"MEAN_MOTION_DDOT":0},{"OBJECT_NAME":"COSMOS 1605","OBJECT_ID":"1984-109A","EPOCH":"2026-03-09T21:37:54.295968","MEAN_MOTION":13.75412208,"ECCENTRICITY":0.00453007,"INCLINATION":82.9386,"RA_OF_ASC_NODE":225.6876,"ARG_OF_PERICENTER":238.3863,"MEAN_ANOMALY":233.8329,"EPHEMERIS_TYPE":0,"CLASSIFICATION_TYPE":"U","NORAD_CAT_ID":15359,"ELEMENT_SET_NO":999,"REV_AT_EPOCH":7818,"BSTAR":7.9010478e-5,"MEAN_MOTION_DOT":9.1e-7,"MEAN_MOTION_DDOT":0}]
